<?xml version="1.0" encoding="UTF-8"?>
<ndm xmlns:xsi="http://www.w3.org/2001/XMLSchema-instance" xsi:noNamespaceSchemaLocation="https://sanaregistry.org/r/ndmxml_unqualified/ndmxml-2.0.0-master-2.0.xsd">
<omm id="CCSDS_OMM_VERS" version="2.0">
<header><CREATION_DATE/><ORIGINATOR/></header><body><segment><metadata><OBJECT_NAME>KUIPER-00035</OBJECT_NAME><OBJECT_ID>2025-088AA</OBJECT_ID><CENTER_NAME>EARTH</CENTER_NAME><REF_FRAME>TEME</REF_FRAME><TIME_SYSTEM>UTC</TIME_SYSTEM><MEAN_ELEMENT_THEORY>SGP4</MEAN_ELEMENT_THEORY></metadata><data><meanElements><EPOCH>2025-07-28T14:00:01.999872</EPOCH><MEAN_MOTION>15.05915939</MEAN_MOTION><ECCENTRICITY>.0003719</ECCENTRICITY><INCLINATION>51.8847</INCLINATION><RA_OF_ASC_NODE>26.7498</RA_OF_ASC_NODE><ARG_OF_PERICENTER>75.2911</ARG_OF_PERICENTER><MEAN_ANOMALY>141.3256</MEAN_ANOMALY></meanElements><tleParameters><EPHEMERIS_TYPE>0</EPHEMERIS_TYPE><CLASSIFICATION_TYPE>U</CLASSIFICATION_TYPE><NORAD_CAT_ID>63748</NORAD_CAT_ID><ELEMENT_SET_NO>999</ELEMENT_SET_NO><REV_AT_EPOCH>1429</REV_AT_EPOCH><BSTAR>-.77773E-1</BSTAR><MEAN_MOTION_DOT>-.1059816E-1</MEAN_MOTION_DOT><MEAN_MOTION_DDOT>0</MEAN_MOTION_DDOT></tleParameters></data></segment></body></omm>
<omm id="CCSDS_OMM_VERS" version="2.0">
<header><CREATION_DATE/><ORIGINATOR/></header><body><segment><metadata><OBJECT_NAME>KUIPER-00037</OBJECT_NAME><OBJECT_ID>2025-088AB</OBJECT_ID><CENTER_NAME>EARTH</CENTER_NAME><REF_FRAME>TEME</REF_FRAME><TIME_SYSTEM>UTC</TIME_SYSTEM><MEAN_ELEMENT_THEORY>SGP4</MEAN_ELEMENT_THEORY></metadata><data><meanElements><EPOCH>2025-07-28T14:00:01.999872</EPOCH><MEAN_MOTION>15.06968391</MEAN_MOTION><ECCENTRICITY>.0004488</ECCENTRICITY><INCLINATION>51.8880</INCLINATION><RA_OF_ASC_NODE>26.0981</RA_OF_ASC_NODE><ARG_OF_PERICENTER>7.8600</ARG_OF_PERICENTER><MEAN_ANOMALY>89.2507</MEAN_ANOMALY></meanElements><tleParameters><EPHEMERIS_TYPE>0</EPHEMERIS_TYPE><CLASSIFICATION_TYPE>U</CLASSIFICATION_TYPE><NORAD_CAT_ID>63749</NORAD_CAT_ID><ELEMENT_SET_NO>999</ELEMENT_SET_NO><REV_AT_EPOCH>1509</REV_AT_EPOCH><BSTAR>-.22503E-2</BSTAR><MEAN_MOTION_DOT>-.34191E-3</MEAN_MOTION_DOT><MEAN_MOTION_DDOT>0</MEAN_MOTION_DDOT></tleParameters></data></segment></body></omm>
<omm id="CCSDS_OMM_VERS" version="2.0">
<header><CREATION_DATE/><ORIGINATOR/></header><body><segment><metadata><OBJECT_NAME>KUIPER-00038</OBJECT_NAME><OBJECT_ID>2025-088AC</OBJECT_ID><CENTER_NAME>EARTH</CENTER_NAME><REF_FRAME>TEME</REF_FRAME><TIME_SYSTEM>UTC</TIME_SYSTEM><MEAN_ELEMENT_THEORY>SGP4</MEAN_ELEMENT_THEORY></metadata><data><meanElements><EPOCH>2025-07-27T21:28:13.338048</EPOCH><MEAN_MOTION>15.37800889</MEAN_MOTION><ECCENTRICITY>.0004686</ECCENTRICITY><INCLINATION>51.8721</INCLINATION><RA_OF_ASC_NODE>23.3825</RA_OF_ASC_NODE><ARG_OF_PERICENTER>71.0269</ARG_OF_PERICENTER><MEAN_ANOMALY>289.1225</MEAN_ANOMALY></meanElements><tleParameters><EPHEMERIS_TYPE>0</EPHEMERIS_TYPE><CLASSIFICATION_TYPE>U</CLASSIFICATION_TYPE><NORAD_CAT_ID>63750</NORAD_CAT_ID><ELEMENT_SET_NO>999</ELEMENT_SET_NO><REV_AT_EPOCH>1407</REV_AT_EPOCH><BSTAR>.50438E-3</BSTAR><MEAN_MOTION_DOT>.18686E-3</MEAN_MOTION_DOT><MEAN_MOTION_DDOT>0</MEAN_MOTION_DDOT></tleParameters></data></segment></body></omm>
<omm id="CCSDS_OMM_VERS" version="2.0">
<header><CREATION_DATE/><ORIGINATOR/></header><body><segment><metadata><OBJECT_NAME>KUIPER-00039</OBJECT_NAME><OBJECT_ID>2025-134A</OBJECT_ID><CENTER_NAME>EARTH</CENTER_NAME><REF_FRAME>TEME</REF_FRAME><TIME_SYSTEM>UTC</TIME_SYSTEM><MEAN_ELEMENT_THEORY>SGP4</MEAN_ELEMENT_THEORY></metadata><data><meanElements><EPOCH>2025-07-28T11:38:26.372544</EPOCH><MEAN_MOTION>15.35054995</MEAN_MOTION><ECCENTRICITY>.0007192</ECCENTRICITY><INCLINATION>51.8674</INCLINATION><RA_OF_ASC_NODE>162.2381</RA_OF_ASC_NODE><ARG_OF_PERICENTER>242.0184</ARG_OF_PERICENTER><MEAN_ANOMALY>118.0074</MEAN_ANOMALY></meanElements><tleParameters><EPHEMERIS_TYPE>0</EPHEMERIS_TYPE><CLASSIFICATION_TYPE>U</CLASSIFICATION_TYPE><NORAD_CAT_ID>64500</NORAD_CAT_ID><ELEMENT_SET_NO>999</ELEMENT_SET_NO><REV_AT_EPOCH>662</REV_AT_EPOCH><BSTAR>.66422E-3</BSTAR><MEAN_MOTION_DOT>.2264E-3</MEAN_MOTION_DOT><MEAN_MOTION_DDOT>0</MEAN_MOTION_DDOT></tleParameters></data></segment></body></omm>
<omm id="CCSDS_OMM_VERS" version="2.0">
<header><CREATION_DATE/><ORIGINATOR/></header><body><segment><metadata><OBJECT_NAME>KUIPER-00040</OBJECT_NAME><OBJECT_ID>2025-134B</OBJECT_ID><CENTER_NAME>EARTH</CENTER_NAME><REF_FRAME>TEME</REF_FRAME><TIME_SYSTEM>UTC</TIME_SYSTEM><MEAN_ELEMENT_THEORY>SGP4</MEAN_ELEMENT_THEORY></metadata><data><meanElements><EPOCH>2025-07-28T14:00:01.999872</EPOCH><MEAN_MOTION>15.22227112</MEAN_MOTION><ECCENTRICITY>.001115</ECCENTRICITY><INCLINATION>51.8745</INCLINATION><RA_OF_ASC_NODE>162.4529</RA_OF_ASC_NODE><ARG_OF_PERICENTER>254.2477</ARG_OF_PERICENTER><MEAN_ANOMALY>312.2101</MEAN_ANOMALY></meanElements><tleParameters><EPHEMERIS_TYPE>0</EPHEMERIS_TYPE><CLASSIFICATION_TYPE>U</CLASSIFICATION_TYPE><NORAD_CAT_ID>64501</NORAD_CAT_ID><ELEMENT_SET_NO>999</ELEMENT_SET_NO><REV_AT_EPOCH>616</REV_AT_EPOCH><BSTAR>-.69316E-1</BSTAR><MEAN_MOTION_DOT>-.1482757E-1</MEAN_MOTION_DOT><MEAN_MOTION_DDOT>0</MEAN_MOTION_DDOT></tleParameters></data></segment></body></omm>
<omm id="CCSDS_OMM_VERS" version="2.0">
<header><CREATION_DATE/><ORIGINATOR/></header><body><segment><metadata><OBJECT_NAME>KUIPER-00041</OBJECT_NAME><OBJECT_ID>2025-134C</OBJECT_ID><CENTER_NAME>EARTH</CENTER_NAME><REF_FRAME>TEME</REF_FRAME><TIME_SYSTEM>UTC</TIME_SYSTEM><MEAN_ELEMENT_THEORY>SGP4</MEAN_ELEMENT_THEORY></metadata><data><meanElements><EPOCH>2025-07-28T14:00:01.999872</EPOCH><MEAN_MOTION>15.18276632</MEAN_MOTION><ECCENTRICITY>.000836</ECCENTRICITY><INCLINATION>51.8744</INCLINATION><RA_OF_ASC_NODE>162.7110</RA_OF_ASC_NODE><ARG_OF_PERICENTER>246.3837</ARG_OF_PERICENTER><MEAN_ANOMALY>156.2230</MEAN_ANOMALY></meanElements><tleParameters><EPHEMERIS_TYPE>0</EPHEMERIS_TYPE><CLASSIFICATION_TYPE>U</CLASSIFICATION_TYPE><NORAD_CAT_ID>64502</NORAD_CAT_ID><ELEMENT_SET_NO>999</ELEMENT_SET_NO><REV_AT_EPOCH>616</REV_AT_EPOCH><BSTAR>-.19408E-1</BSTAR><MEAN_MOTION_DOT>-.383316E-2</MEAN_MOTION_DOT><MEAN_MOTION_DDOT>0</MEAN_MOTION_DDOT></tleParameters></data></segment></body></omm>
<omm id="CCSDS_OMM_VERS" version="2.0">
<header><CREATION_DATE/><ORIGINATOR/></header><body><segment><metadata><OBJECT_NAME>KUIPER-00042</OBJECT_NAME><OBJECT_ID>2025-134D</OBJECT_ID><CENTER_NAME>EARTH</CENTER_NAME><REF_FRAME>TEME</REF_FRAME><TIME_SYSTEM>UTC</TIME_SYSTEM><MEAN_ELEMENT_THEORY>SGP4</MEAN_ELEMENT_THEORY></metadata><data><meanElements><EPOCH>2025-07-28T14:00:01.999872</EPOCH><MEAN_MOTION>15.29577452</MEAN_MOTION><ECCENTRICITY>.0009123</ECCENTRICITY><INCLINATION>51.8674</INCLINATION><RA_OF_ASC_NODE>161.9369</RA_OF_ASC_NODE><ARG_OF_PERICENTER>241.6990</ARG_OF_PERICENTER><MEAN_ANOMALY>214.6632</MEAN_ANOMALY></meanElements><tleParameters><EPHEMERIS_TYPE>0</EPHEMERIS_TYPE><CLASSIFICATION_TYPE>U</CLASSIFICATION_TYPE><NORAD_CAT_ID>64503</NORAD_CAT_ID><ELEMENT_SET_NO>999</ELEMENT_SET_NO><REV_AT_EPOCH>617</REV_AT_EPOCH><BSTAR>-.26895E-1</BSTAR><MEAN_MOTION_DOT>-.722847E-2</MEAN_MOTION_DOT><MEAN_MOTION_DDOT>0</MEAN_MOTION_DDOT></tleParameters></data></segment></body></omm>
<omm id="CCSDS_OMM_VERS" version="2.0">
<header><CREATION_DATE/><ORIGINATOR/></header><body><segment><metadata><OBJECT_NAME>KUIPER-00043</OBJECT_NAME><OBJECT_ID>2025-134E</OBJECT_ID><CENTER_NAME>EARTH</CENTER_NAME><REF_FRAME>TEME</REF_FRAME><TIME_SYSTEM>UTC</TIME_SYSTEM><MEAN_ELEMENT_THEORY>SGP4</MEAN_ELEMENT_THEORY></metadata><data><meanElements><EPOCH>2025-07-28T07:00:06.337728</EPOCH><MEAN_MOTION>15.34901917</MEAN_MOTION><ECCENTRICITY>.0007937</ECCENTRICITY><INCLINATION>51.8683</INCLINATION><RA_OF_ASC_NODE>163.1970</RA_OF_ASC_NODE><ARG_OF_PERICENTER>235.6099</ARG_OF_PERICENTER><MEAN_ANOMALY>124.4137</MEAN_ANOMALY></meanElements><tleParameters><EPHEMERIS_TYPE>0</EPHEMERIS_TYPE><CLASSIFICATION_TYPE>U</CLASSIFICATION_TYPE><NORAD_CAT_ID>64504</NORAD_CAT_ID><ELEMENT_SET_NO>999</ELEMENT_SET_NO><REV_AT_EPOCH>659</REV_AT_EPOCH><BSTAR>.80417E-3</BSTAR><MEAN_MOTION_DOT>.27378E-3</MEAN_MOTION_DOT><MEAN_MOTION_DDOT>0</MEAN_MOTION_DDOT></tleParameters></data></segment></body></omm>

</ndm>
