KUIPER-00035            
1 63748U 25088AA  25209.58335648 -.01059816  00000+0 -77773-1 0  9994
2 63748  51.8847  26.7498 0003719  75.2911 141.3256 15.05915939 14299
KUIPER-00037            
1 63749U 25088AB  25209.58335648 -.00034191  00000+0 -22503-2 0  9995
2 63749  51.8880  26.0981 0004488   7.8600  89.2507 15.06968391 15096
KUIPER-00038            
1 63750U 25088AC  25208.89459882  .00018686  00000+0  50438-3 0  9995
2 63750  51.8721  23.3825 0004686  71.0269 289.1225 15.37800889 14079
KUIPER-00039            
1 64500U 25134A   25209.48502746  .00022640  00000+0  66422-3 0  9990
2 64500  51.8674 162.2381 0007192 242.0184 118.0074 15.35054995  6622
KUIPER-00040            
1 64501U 25134B   25209.58335648 -.01482757  00000+0 -69316-1 0  9992
2 64501  51.8745 162.4529 0011150 254.2477 312.2101 15.22227112  6164
KUIPER-00041            
1 64502U 25134C   25209.58335648 -.00383316  00000+0 -19408-1 0  9990
2 64502  51.8744 162.7110 0008360 246.3837 156.2230 15.18276632  6169
KUIPER-00042            
1 64503U 25134D   25209.58335648 -.00722847  00000+0 -26895-1 0  9995
2 64503  51.8674 161.9369 0009123 241.6990 214.6632 15.29577452  6177
KUIPER-00043            
1 64504U 25134E   25209.29174002  .00027378  00000+0  80417-3 0  9996
2 64504  51.8683 163.1970 0007937 235.6099 124.4137 15.34901917  6591
